start=new Date('2023-07-02T00:00:00.000Z').valueOf();
sats=[{"COUNTRY_CODE":"US","MEAN_MOTION_DOT":"-0.00000520","MEAN_ANOMALY":"90.8736","MEAN_MOTION":"14.98326225","LAUNCH_DATE":"2023-03-17","PERIOD":"96.107","SITE":"AFWTR","CLASSIFICATION_TYPE":"U","TLE_LINE1":"1 55922U 23037J   23182.62276006 -.00000520  00000-0 -35749-4 0  9994","SEMIMAJOR_AXIS":"6950.205","TLE_LINE2":"2 55922  69.9992 260.5675 0003800 269.1988  90.8736 14.98326225 16725","APOAPSIS":"574.711","RA_OF_ASC_NODE":"260.5675","INCLINATION":"69.9992","OBJECT_NAME":"STARLINK-5863","PERIAPSIS":"569.428","EPOCH":"2023-07-01T14:56:46.469184","FILE":"3947148","GP_ID":"234659693","DECAY_DATE":null,"CENTER_NAME":"EARTH","NORAD_CAT_ID":"55922","TIME_SYSTEM":"UTC","OBJECT_ID":"2023-037J","ECCENTRICITY":"0.00038000","REF_FRAME":"TEME","ARG_OF_PERICENTER":"269.1988","OBJECT_TYPE":"PAYLOAD","MEAN_ELEMENT_THEORY":"SGP4","REV_AT_EPOCH":"1672","BSTAR":"-0.00003574900000","MEAN_MOTION_DDOT":"0.0000000000000","RCS_SIZE":"LARGE","EPHEMERIS_TYPE":"0","ELEMENT_SET_NO":"999"},{"GP_ID":"234643491","DECAY_DATE":null,"FILE":"3946493","CENTER_NAME":"EARTH","PERIAPSIS":"569.480","EPOCH":"2023-06-30T23:01:26.186304","RA_OF_ASC_NODE":"262.2640","INCLINATION":"69.9991","TLE_LINE2":"2 55923  69.9991 262.2640 0003715 270.4760  89.5973 14.98328682 16620","APOAPSIS":"574.644","OBJECT_NAME":"STARLINK-5854","SITE":"AFWTR","PERIOD":"96.107","TLE_LINE1":"1 55923U 23037K   23181.95933086 -.00000250  00000-0 -13168-4 0  9999","SEMIMAJOR_AXIS":"6950.197","CLASSIFICATION_TYPE":"U","MEAN_MOTION_DOT":"-0.00000250","COUNTRY_CODE":"US","MEAN_MOTION":"14.98328682","LAUNCH_DATE":"2023-03-17","MEAN_ANOMALY":"89.5973","RCS_SIZE":"LARGE","EPHEMERIS_TYPE":"0","ELEMENT_SET_NO":"999","MEAN_ELEMENT_THEORY":"SGP4","MEAN_MOTION_DDOT":"0.0000000000000","REV_AT_EPOCH":"1662","BSTAR":"-0.00001316800000","OBJECT_ID":"2023-037K","ECCENTRICITY":"0.00037150","REF_FRAME":"TEME","TIME_SYSTEM":"UTC","ARG_OF_PERICENTER":"270.4760","OBJECT_TYPE":"PAYLOAD","NORAD_CAT_ID":"55923"},{"RA_OF_ASC_NODE":"245.9037","INCLINATION":"69.9998","TLE_LINE2":"2 55924  69.9998 245.9037 0003646 270.3713  30.8369 15.51215920 17029","APOAPSIS":"415.653","OBJECT_NAME":"STARLINK-5849","DECAY_DATE":null,"GP_ID":"234638596","FILE":"3946276","CENTER_NAME":"EARTH","PERIAPSIS":"410.701","EPOCH":"2023-06-30T22:00:00.999936","MEAN_MOTION_DOT":"0.00002193","COUNTRY_CODE":"US","MEAN_MOTION":"15.51215920","LAUNCH_DATE":"2023-03-17","MEAN_ANOMALY":"30.8369","SITE":"AFWTR","PERIOD":"92.830","TLE_LINE1":"1 55924U 23037L   23181.91667824  .00002193  00000-0  40136-4 0  9991","SEMIMAJOR_AXIS":"6791.312","CLASSIFICATION_TYPE":"U","MEAN_ELEMENT_THEORY":"SGP4","MEAN_MOTION_DDOT":"0.0000000000000","REV_AT_EPOCH":"1702","BSTAR":"0.00004013600000","RCS_SIZE":"LARGE","EPHEMERIS_TYPE":"0","ELEMENT_SET_NO":"999","NORAD_CAT_ID":"55924","ECCENTRICITY":"0.00036460","OBJECT_ID":"2023-037L","REF_FRAME":"TEME","TIME_SYSTEM":"UTC","ARG_OF_PERICENTER":"270.3713","OBJECT_TYPE":"PAYLOAD"},{"ELEMENT_SET_NO":"999","EPHEMERIS_TYPE":"0","RCS_SIZE":"LARGE","MEAN_MOTION_DDOT":"0.0000000000000","BSTAR":"-0.00000132170000","REV_AT_EPOCH":"1672","MEAN_ELEMENT_THEORY":"SGP4","OBJECT_TYPE":"PAYLOAD","ARG_OF_PERICENTER":"270.5157","REF_FRAME":"TEME","ECCENTRICITY":"0.00034250","OBJECT_ID":"2023-037M","TIME_SYSTEM":"UTC","NORAD_CAT_ID":"55925","CENTER_NAME":"EARTH","GP_ID":"234659850","DECAY_DATE":null,"FILE":"3947157","EPOCH":"2023-07-01T14:44:45.032640","PERIAPSIS":"569.691","OBJECT_NAME":"STARLINK-5922","RA_OF_ASC_NODE":"260.5362","INCLINATION":"69.9995","APOAPSIS":"574.452","TLE_LINE2":"2 55925  69.9995 260.5362 0003425 270.5157  89.5610 14.98325601 16724","SEMIMAJOR_AXIS":"6950.206","TLE_LINE1":"1 55925U 23037M   23182.61441010 -.00000109  00000-0 -13217-5 0  9995","CLASSIFICATION_TYPE":"U","SITE":"AFWTR","PERIOD":"96.107","LAUNCH_DATE":"2023-03-17","MEAN_MOTION":"14.98325601","MEAN_ANOMALY":"89.5610","MEAN_MOTION_DOT":"-0.00000109","COUNTRY_CODE":"US"},{"NORAD_CAT_ID":"55926","OBJECT_TYPE":"PAYLOAD","ARG_OF_PERICENTER":"272.6868","REF_FRAME":"TEME","OBJECT_ID":"2023-037N","ECCENTRICITY":"0.00036540","TIME_SYSTEM":"UTC","MEAN_MOTION_DDOT":"0.0000000000000","BSTAR":"0.00021176000000","REV_AT_EPOCH":"1702","MEAN_ELEMENT_THEORY":"SGP4","ELEMENT_SET_NO":"999","EPHEMERIS_TYPE":"0","RCS_SIZE":"LARGE","LAUNCH_DATE":"2023-03-17","MEAN_MOTION":"15.51213402","MEAN_ANOMALY":"27.6764","MEAN_MOTION_DOT":"0.00012289","COUNTRY_CODE":"US","TLE_LINE1":"1 55926U 23037N   23181.91667824  .00012289  00000-0  21176-3 0  9992","SEMIMAJOR_AXIS":"6791.319","CLASSIFICATION_TYPE":"U","SITE":"AFWTR","PERIOD":"92.831","OBJECT_NAME":"STARLINK-5921","RA_OF_ASC_NODE":"245.9047","INCLINATION":"69.9996","APOAPSIS":"415.666","TLE_LINE2":"2 55926  69.9996 245.9047 0003654 272.6868  27.6764 15.51213402 17021","CENTER_NAME":"EARTH","FILE":"3946276","GP_ID":"234638383","DECAY_DATE":null,"EPOCH":"2023-06-30T22:00:00.999936","PERIAPSIS":"410.703"},{"SITE":"AFWTR","PERIOD":"96.107","TLE_LINE1":"1 55927U 23037P   23181.94263368 -.00000409  00000-0 -26510-4 0  9992","SEMIMAJOR_AXIS":"6950.195","CLASSIFICATION_TYPE":"U","MEAN_MOTION_DOT":"-0.00000409","COUNTRY_CODE":"US","MEAN_MOTION":"14.98329281","LAUNCH_DATE":"2023-03-17","MEAN_ANOMALY":"90.6106","DECAY_DATE":null,"GP_ID":"234646257","FILE":"3946592","CENTER_NAME":"EARTH","PERIAPSIS":"569.628","EPOCH":"2023-06-30T22:37:23.549952","RA_OF_ASC_NODE":"262.2055","INCLINATION":"70.0000","TLE_LINE2":"2 55927  70.0000 262.2055 0003500 269.4652  90.6106 14.98329281 16625","APOAPSIS":"574.493","OBJECT_NAME":"STARLINK-5919","OBJECT_ID":"2023-037P","ECCENTRICITY":"0.00035000","REF_FRAME":"TEME","TIME_SYSTEM":"UTC","ARG_OF_PERICENTER":"269.4652","OBJECT_TYPE":"PAYLOAD","NORAD_CAT_ID":"55927","RCS_SIZE":"LARGE","EPHEMERIS_TYPE":"0","ELEMENT_SET_NO":"999","MEAN_ELEMENT_THEORY":"SGP4","MEAN_MOTION_DDOT":"0.0000000000000","REV_AT_EPOCH":"1662","BSTAR":"-0.00002651000000"},{"NORAD_CAT_ID":"55928","ARG_OF_PERICENTER":"270.7732","OBJECT_TYPE":"PAYLOAD","TIME_SYSTEM":"UTC","ECCENTRICITY":"0.00036670","OBJECT_ID":"2023-037Q","REF_FRAME":"TEME","REV_AT_EPOCH":"1662","BSTAR":"-0.00004270200000","MEAN_MOTION_DDOT":"0.0000000000000","MEAN_ELEMENT_THEORY":"SGP4","EPHEMERIS_TYPE":"0","ELEMENT_SET_NO":"999","RCS_SIZE":"LARGE","MEAN_ANOMALY":"89.3007","MEAN_MOTION":"14.98329414","LAUNCH_DATE":"2023-03-17","COUNTRY_CODE":"US","MEAN_MOTION_DOT":"-0.00000603","CLASSIFICATION_TYPE":"U","SEMIMAJOR_AXIS":"6950.195","TLE_LINE1":"1 55928U 23037Q   23181.93428593 -.00000603  00000-0 -42702-4 0  9992","PERIOD":"96.107","SITE":"AFWTR","OBJECT_NAME":"STARLINK-5930","TLE_LINE2":"2 55928  69.9996 262.1754 0003667 270.7732  89.3007 14.98329414 16623","APOAPSIS":"574.608","RA_OF_ASC_NODE":"262.1754","INCLINATION":"69.9996","PERIAPSIS":"569.511","EPOCH":"2023-06-30T22:25:22.304352","GP_ID":"234645753","FILE":"3946592","DECAY_DATE":null,"CENTER_NAME":"EARTH"},{"MEAN_MOTION_DDOT":"0.0000000000000","REV_AT_EPOCH":"1669","BSTAR":"0.00006717300000","MEAN_ELEMENT_THEORY":"SGP4","EPHEMERIS_TYPE":"0","ELEMENT_SET_NO":"999","RCS_SIZE":"LARGE","NORAD_CAT_ID":"55929","ARG_OF_PERICENTER":"263.5107","OBJECT_TYPE":"PAYLOAD","OBJECT_ID":"2023-037R","ECCENTRICITY":"0.00036350","REF_FRAME":"TEME","TIME_SYSTEM":"UTC","OBJECT_NAME":"STARLINK-5898","RA_OF_ASC_NODE":"261.0116","INCLINATION":"69.9992","TLE_LINE2":"2 55929  69.9992 261.0116 0003635 263.5107  96.5638 14.98316789 16699","APOAPSIS":"574.625","DECAY_DATE":null,"GP_ID":"234652685","FILE":"3946879","CENTER_NAME":"EARTH","PERIAPSIS":"569.572","EPOCH":"2023-07-01T09:44:19.532832","MEAN_MOTION":"14.98316789","LAUNCH_DATE":"2023-03-17","MEAN_ANOMALY":"96.5638","MEAN_MOTION_DOT":"0.00000708","COUNTRY_CODE":"US","SEMIMAJOR_AXIS":"6950.234","TLE_LINE1":"1 55929U 23037R   23182.40578163  .00000708  00000-0  67173-4 0  9998","CLASSIFICATION_TYPE":"U","SITE":"AFWTR","PERIOD":"96.108"},{"RA_OF_ASC_NODE":"244.0801","INCLINATION":"70.0000","APOAPSIS":"415.798","TLE_LINE2":"2 55930  70.0000 244.0801 0003832 271.8946 151.9702 15.51209497 17122","OBJECT_NAME":"STARLINK-5896","CENTER_NAME":"EARTH","DECAY_DATE":null,"GP_ID":"234652683","FILE":"3946879","EPOCH":"2023-07-01T14:00:01.000224","PERIAPSIS":"410.593","MEAN_MOTION_DOT":"0.00046019","COUNTRY_CODE":"US","LAUNCH_DATE":"2023-03-17","MEAN_MOTION":"15.51209497","MEAN_ANOMALY":"151.9702","SITE":"AFWTR","PERIOD":"92.831","SEMIMAJOR_AXIS":"6791.331","TLE_LINE1":"1 55930U 23037S   23182.58334491  .00046019  00000-0  78205-3 0  9995","CLASSIFICATION_TYPE":"U","MEAN_ELEMENT_THEORY":"SGP4","MEAN_MOTION_DDOT":"0.0000000000000","BSTAR":"0.00078205000000","REV_AT_EPOCH":"1712","RCS_SIZE":"LARGE","ELEMENT_SET_NO":"999","EPHEMERIS_TYPE":"0","NORAD_CAT_ID":"55930","REF_FRAME":"TEME","ECCENTRICITY":"0.00038320","OBJECT_ID":"2023-037S","TIME_SYSTEM":"UTC","OBJECT_TYPE":"PAYLOAD","ARG_OF_PERICENTER":"271.8946"},{"NORAD_CAT_ID":"55931","TIME_SYSTEM":"UTC","OBJECT_ID":"2023-037T","ECCENTRICITY":"0.00034930","REF_FRAME":"TEME","ARG_OF_PERICENTER":"268.8160","OBJECT_TYPE":"PAYLOAD","MEAN_ELEMENT_THEORY":"SGP4","REV_AT_EPOCH":"1669","BSTAR":"-0.00003482500000","MEAN_MOTION_DDOT":"0.0000000000000","RCS_SIZE":"LARGE","EPHEMERIS_TYPE":"0","ELEMENT_SET_NO":"999","COUNTRY_CODE":"US","MEAN_MOTION_DOT":"-0.00000509","MEAN_ANOMALY":"91.2599","MEAN_MOTION":"14.98325348","LAUNCH_DATE":"2023-03-17","PERIOD":"96.107","SITE":"AFWTR","CLASSIFICATION_TYPE":"U","SEMIMAJOR_AXIS":"6950.207","TLE_LINE1":"1 55931U 23037T   23182.39744361 -.00000509  00000-0 -34825-4 0  9993","TLE_LINE2":"2 55931  69.9994 260.9820 0003493 268.8160  91.2599 14.98325348 16692","APOAPSIS":"574.500","INCLINATION":"69.9994","RA_OF_ASC_NODE":"260.9820","OBJECT_NAME":"STARLINK-5897","PERIAPSIS":"569.645","EPOCH":"2023-07-01T09:32:19.127904","GP_ID":"234652704","DECAY_DATE":null,"FILE":"3946864","CENTER_NAME":"EARTH"}];
